E-ST@R-II               
1 41459U 16025D   22010.93037627  .00003036  00000+0  14435-3 0  9990
2 41459  98.1665 165.1060 0156479  82.8911 279.0091 15.09843544313705
AAUSAT 4                
1 41460U 16025E   22010.88741497  .00004604  00000+0  20332-3 0  9998
2 41460  98.1636 170.0783 0140883  63.2058 298.3506 15.13749201314064
BEESAT-4                
1 41619U 16040W   22010.70867455  .00004609  00000+0  17568-3 0  9997
2 41619  97.2430  65.8417 0009134 325.8852  34.1800 15.27143787296625
CANX-7                  
1 41788U 16059F   22010.89804085  .00039862  00000+0  33374-2 0  9995
2 41788  98.2407 130.2689 0024156 236.7653 123.2072 14.98082817284772
RAVAN                   
1 41849U 16067B   22010.82619659  .00001360  00000+0  11566-3 0  9998
2 41849  97.9833 143.5314 0010249 144.3681 215.8227 14.99565122282363
CELTEE 1                
1 41850U 16067C   22010.81331250  .00000690  00000+0  64031-4 0  9998
2 41850  97.9753 139.2356 0009525 138.5571 221.6375 14.97747776282153
OPTICUBE 04             
1 41851U 16067D   22010.80301337  .00000191  00000+0  21763-4 0  9992
2 41851  97.9742 138.4483 0009432 140.4098 219.7813 14.97307064282110
AEROCUBE 8D             
1 41852U 16067E   22010.85324780  .00000237  00000+0  25560-4 0  9995
2 41852  97.9749 138.4202 0010154 138.0655 222.1345 14.97557579282107
AEROCUBE 8C             
1 41853U 16067F   22010.83108217  .00001502  00000+0  13397-3 0  9999
2 41853  97.9740 138.2395 0011056 139.6823 220.5220 14.97522177282094
PROMETHEUS 2-1          
1 41854U 16067G   22010.82622334  .00001805  00000+0  15717-3 0  9994
2 41854  97.9743 139.0574 0011423 138.9901 221.2182 14.98194513282133
PROMETHEUS 2-3          
1 41855U 16067H   22010.82118541  .00001593  00000+0  13930-3 0  9994
2 41855  97.9741 139.1190 0011437 140.8335 219.3716 14.98212105282134
INS-1B                  
1 41954U 17008G   22010.69406478  .00004259  00000+0  15958-3 0  9998
2 41954  97.2828  74.1210 0010068  80.1555 280.0821 15.27754422272635
BGUSAT                  
1 41999U 17008BD  22010.71384761  .00008062  00000+0  25572-3 0  9999
2 41999  97.3034  82.5733 0008305  79.1559 281.0618 15.32920614272426
DIDO-2                  
1 42000U 17008BE  22010.79523709  .00002865  00000+0  11294-3 0  9999
2 42000  97.2820  74.1263 0009663  97.1610 263.0728 15.26338739272003
PEASSS                  
1 42015U 17008BV  22010.82151834  .00003926  00000+0  14496-3 0  9991
2 42015  97.2876  77.2670 0007531  95.1802 265.0297 15.28305049272675
AL-FARABI 1             
1 42016U 17008BW  22010.73959066  .00005265  00000+0  18395-3 0  9995
2 42016  97.2934  79.5486 0007229  92.7272 267.4796 15.29968452272909
NAYIF-1 (EO-88)         
1 42017U 17008BX  22010.63380557  .00005331  00000+0  18581-3 0  9999
2 42017  97.2927  79.4510 0007267  92.1353 268.0720 15.30039236272911
UCLSAT                  
1 42765U 17036A   22010.67645183  .00004114  00000+0  16109-3 0  9995
2 42765  97.2233  58.5023 0010988 155.5403 204.6360 15.26289729253769
LITUANICASAT-2          
1 42768U 17036D   22010.69719251  .00006982  00000+0  25113-3 0  9998
2 42768  97.2320  60.1244 0013682 144.7556 215.4592 15.28832276253104
AALTO-1                 
1 42775U 17036L   22010.83421239  .00002441  00000+0  10478-3 0  9992
2 42775  97.2216  54.5224 0013830 156.7928 203.3936 15.23548422252763
URSA MAIOR              
1 42776U 17036M   22010.66397753  .00002608  00000+0  11056-3 0  9995
2 42776  97.2229  54.9554 0013585 156.3765 203.8100 15.23911719252761
COMPASS 2               
1 42777U 17036N   22010.85027674  .00005529  00000+0  20687-3 0  9994
2 42777  97.2301  60.1313 0011966 145.4050 214.7970 15.27643789253054
DIAMOND RED             
1 42783U 17036U   22010.82013124  .00002835  00000+0  11637-3 0  9995
2 42783  97.2242  57.1460 0011788 160.8171 199.3514 15.24953656252900
PEGASUS                 
1 42784U 17036V   22010.85316566  .00003651  00000+0  14574-3 0  9995
2 42784  97.2244  58.0741 0011597 158.1639 202.0096 15.25714144252963
DIAMOND GREEN           
1 42785U 17036W   22010.81949851  .00003118  00000+0  12765-3 0  9999
2 42785  97.2245  57.2013 0011674 161.3085 198.8585 15.24968249252977
DIAMOND BLUE            
1 42786U 17036X   22010.62173248  .00003008  00000+0  12327-3 0  9990
2 42786  97.2245  57.0026 0011585 162.3738 197.7905 15.24961495252944
NUDTSAT                 
1 42787U 17036Y   22010.88072480  .00004407  00000+0  16164-3 0  9992
2 42787  97.2276  61.2940 0010646 148.0275 212.1618 15.28424237252995
SUCHAI                  
1 42788U 17036Z   22010.79379536  .00004547  00000+0  17504-3 0  9999
2 42788  97.2252  59.3110 0011193 154.3155 205.8642 15.26801074253108
SKCUBE                  
1 42789U 17036AA  22010.60361632  .00004013  00000+0  15663-3 0  9990
2 42789  97.2248  58.7267 0011087 155.6490 204.5275 15.26408407252973
VZLUSAT-1               
1 42790U 17036AB  22010.81453516  .00006194  00000+0  22645-3 0  9998
2 42790  97.2283  61.2130 0010454 148.6173 211.5693 15.28374604253133
ROBUSTA-1B              
1 42792U 17036AD  22010.66691106  .00004423  00000+0  17077-3 0  9998
2 42792  97.2250  59.2569 0010692 155.2424 204.9330 15.26721495253023
CICERO 6                
1 42793U 17036AE  22010.84251120  .00002700  00000+0  11063-3 0  9992
2 42793  97.2223  57.7545 0010163 159.2844 200.8808 15.25072259253036
CORVUS BC2              
1 42846U 17042X   22010.88166586  .00000347  00000+0  38894-4 0  9990
2 42846  97.4427 236.9297 0010001 155.8378 204.3313 14.92488602244770
CORVUS BC1              
1 42847U 17042Y   22010.57073190  .00000660  00000+0  69193-4 0  9999
2 42847  97.4429 236.9126 0009664 155.8107 204.3568 14.92585226244735
MIRATA                  
1 43015U 17073C   22010.72081989  .00004175  00000+0  31676-3 0  9992
2 43015  97.6893 271.9944 0245819 339.0732  20.0553 14.81796612223893
MAKERSAT 0              
1 43016U 17073D   22010.67495344  .00002908  00000+0  22455-3 0  9998
2 43016  97.6922 271.8001 0250689 342.3753  16.8875 14.80732800223833
AEROCUBE 7B (OCSD B)    
1 43042U 17071F   22010.80592173  .00020432  00000+0  30631-3 0  9995
2 43042  51.6352 120.9743 0002904 349.9091  10.1841 15.54904817231019
AEROCUBE 7C (OCSD C)    
1 43043U 17071G   22010.86921835  .00020002  00000+0  30482-3 0  9990
2 43043  51.6344 121.3750 0002967 354.3309   5.7648 15.54469145230985
ASGARDIA 1              
1 43049U 17071N   22010.85579997  .00018684  00000+0  29239-3 0  9994
2 43049  51.6361 121.4563 0001344  15.6725 344.4307 15.53787116230985
ISARA                   
1 43050U 17071P   22010.65786753  .00119501  00000+0  62621-3 0  9996
2 43050  51.6263  72.7918 0004543  13.2335 346.8785 15.79911926231618
PROPCUBE 2 (FAUNA)      
1 43052U 17071R   22010.52866693  .00020414  00000+0  29914-3 0  9998
2 43052  51.6339 117.7463 0001310   7.3689 352.7321 15.55530917230997
CORVUS BC3              
1 43118U 18004H   22010.74615761  .00002527  00000+0  10351-3 0  9990
2 43118  97.3829  85.6155 0009356 190.4801 169.6243 15.25185370222164
MICROMAS-2A             
1 43131U 18004W   22010.73419487  .00006955  00000+0  24396-3 0  9994
2 43131  97.3934  90.4040 0007715 178.6510 181.4752 15.29727018222426
SPACEBEE-4              
1 43139U 18004AE  22010.70957090  .00010911  00000+0  34128-3 0  9997
2 43139  97.4016  93.8057 0006830 173.3900 186.7434 15.33293013222606
SPACEBEE-3              
1 43140U 18004AF  22010.76826493  .00015109  00000+0  42729-3 0  9997
2 43140  97.4059  96.1713 0006238 167.9763 192.1631 15.36399448222745
SPACEBEE-2              
1 43141U 18004AG  22010.79781957  .00017466  00000+0  47580-3 0  9994
2 43141  97.4083  97.0885 0005756 165.8604 194.2803 15.37536394222791
SPACEBEE-1              
1 43142U 18004AH  22010.77299905  .00019847  00000+0  51639-3 0  9995
2 43142  97.4096  97.9848 0005731 161.6062 198.5392 15.38928744222839
CICERO 7                
1 43143U 18004AJ  22010.77243499  .00006193  00000+0  21987-3 0  9996
2 43143  97.3908  90.3500 0006068 185.4974 174.6201 15.29390696222443
GOMX-4B                 
1 43196U 18015E   22010.85679974  .00001296  00000+0  54001-4 0  9999
2 43196  97.5103 149.2530 0016530 249.6046 110.3416 15.25476064219121
GOMX-4A                 
1 43197U 18015F   22010.91604095  .00002103  00000+0  83366-4 0  9993
2 43197  97.5097 149.7839 0016599 249.9216 224.9600 15.26426874219175
AEROCUBE 12A            
1 43556U 18046C   22010.88241291  .00005686  00000+0  18197-3 0  9995
2 43556  51.6376 228.4653 0007632 183.7880 176.3046 15.33887029195093
AEROCUBE 12B            
1 43557U 18046D   22010.81374690  .00004873  00000+0  16208-3 0  9997
2 43557  51.6387 231.7049 0007776 182.2781 177.8167 15.32978671194996
SURFSAT                 
1 43614U 18070B   22010.80794471  .00010429  00000+0  21766-3 0  9999
2 43614  93.0211  32.4902 0009814 279.5141  80.5008 15.45478178186654
CP7 (DAVE)              
1 43615U 18070C   22010.54862744  .00009611  00000+0  20364-3 0  9994
2 43615  93.0215  32.3036 0010075 281.4123  78.6002 15.45034438186591
ELFIN-B                 
1 43616U 18070D   22010.77067775  .00014827  00000+0  26304-3 0  9996
2 43616  93.0161  32.9469 0008917 271.3322  88.6917 15.50157755186825
ELFIN-A                 
1 43617U 18070E   22010.77538097  .00015620  00000+0  26919-3 0  9991
2 43617  93.0215  34.0235 0008156 266.4807  93.5521 15.50981980186852
CUBEBEL-1 (BSUSAT-1)    
1 43666U 18083E   22010.85416275  .00002445  00000+0  11490-3 0  9990
2 43666  97.4381  41.5243 0014709 158.4991  16.3465 15.20466935177513
CICERO 10               
1 43690U 18088A   22010.85647527  .00002811  00000+0  12008-3 0  9991
2 43690  85.0363  60.7146 0014626  17.5482 342.6262 15.22297586175767
IRVINE01                
1 43693U 18088D   22010.84859611  .00009019  00000+0  32050-3 0  9998
2 43693  85.0322  56.8129 0014039 346.7841  13.3034 15.28755125176085
